{
  "type": "FeatureCollection",
  "features": [
    {
      "type": "Feature",
      "properties": {
        "norad_id": 38091,
        "name": "BEIDOU-2 G5 (C05)",
        "group": "gnss",
        "lat": -2.346691925596276,
        "lon": -61.50518761348679,
        "alt_km": 35731.84100943683,
        "timestamp": "2025-12-24T09:46:31.246130+00:00",
        "meta_object_name": "BEIDOU-2 G5 (C05)",
        "meta_object_id": "2012-008A",
        "meta_epoch": "2025-12-24T02:18:38.733696",
        "meta_mean_motion": 1.00269743,
        "meta_eccentricity": 0.0013065,
        "meta_inclination": 3.1357,
        "meta_ra_of_asc_node": 70.6677,
        "meta_arg_of_pericenter": 232.1361,
        "meta_mean_anomaly": 243.4747,
        "meta_ephemeris_type": 0,
        "meta_classification_type": "U",
        "meta_norad_cat_id": 38091,
        "meta_element_set_no": 999,
        "meta_rev_at_epoch": 5061,
        "meta_bstar": 0,
        "meta_mean_motion_dot": 7.7e-07,
        "meta_mean_motion_ddot": 0,
        "tle_line1": "1 38091U 12008A   25358.09628164  .00000077  00000+0  00000+0 0  9993",
        "tle_line2": "2 38091   3.1357  70.6677 0013065 232.1361 243.4747  1.00269743 50613"
      },
      "geometry": {
        "type": "Point",
        "coordinates": [
          -61.50518761348679,
          -2.346691925596276
        ]
      }
    },
    {
      "type": "Feature",
      "properties": {
        "norad_id": 38250,
        "name": "BEIDOU-2 M3 (C11)",
        "group": "gnss",
        "lat": 1.2418887681912094,
        "lon": 129.90649489677884,
        "alt_km": 21536.347763550613,
        "timestamp": "2025-12-24T09:46:31.246142+00:00",
        "meta_object_name": "BEIDOU-2 M3 (C11)",
        "meta_object_id": "2012-018A",
        "meta_epoch": "2025-12-23T14:28:50.284992",
        "meta_mean_motion": 1.86230163,
        "meta_eccentricity": 0.00241022,
        "meta_inclination": 55.911,
        "meta_ra_of_asc_node": 310.7927,
        "meta_arg_of_pericenter": 275.3746,
        "meta_mean_anomaly": 84.3517,
        "meta_ephemeris_type": 0,
        "meta_classification_type": "U",
        "meta_norad_cat_id": 38250,
        "meta_element_set_no": 999,
        "meta_rev_at_epoch": 9267,
        "meta_bstar": 0,
        "meta_mean_motion_dot": -5.4e-07,
        "meta_mean_motion_ddot": 0,
        "tle_line1": "1 38250U 12018A   25357.60335978 -.00000054  00000+0  00000+0 0  9991",
        "tle_line2": "2 38250  55.9110 310.7927 0024102 275.3746  84.3517  1.86230163 92675"
      },
      "geometry": {
        "type": "Point",
        "coordinates": [
          129.90649489677884,
          1.2418887681912094
        ]
      }
    },
    {
      "type": "Feature",
      "properties": {
        "norad_id": 38251,
        "name": "BEIDOU-2 M4 (C12)",
        "group": "gnss",
        "lat": -35.27511349061719,
        "lon": 158.68285374177813,
        "alt_km": 21508.08909112347,
        "timestamp": "2025-12-24T09:46:31.246153+00:00",
        "meta_object_name": "BEIDOU-2 M4 (C12)",
        "meta_object_id": "2012-018B",
        "meta_epoch": "2025-12-21T22:11:20.549760",
        "meta_mean_motion": 1.86229896,
        "meta_eccentricity": 0.00152556,
        "meta_inclination": 55.8135,
        "meta_ra_of_asc_node": 310.0771,
        "meta_arg_of_pericenter": 279.1681,
        "meta_mean_anomaly": 80.6551,
        "meta_ephemeris_type": 0,
        "meta_classification_type": "U",
        "meta_norad_cat_id": 38251,
        "meta_element_set_no": 999,
        "meta_rev_at_epoch": 9264,
        "meta_bstar": 0,
        "meta_mean_motion_dot": -6e-07,
        "meta_mean_motion_ddot": 0,
        "tle_line1": "1 38251U 12018B   25355.92454340 -.00000060  00000+0  00000+0 0  9997",
        "tle_line2": "2 38251  55.8135 310.0771 0015255 279.1681  80.6551  1.86229896 92646"
      },
      "geometry": {
        "type": "Point",
        "coordinates": [
          158.68285374177813,
          -35.27511349061719
        ]
      }
    },
    {
      "type": "Feature",
      "properties": {
        "norad_id": 38652,
        "name": "SES-5 (EGNOS/PRN 136)",
        "group": "gnss",
        "lat": -0.06533201575615773,
        "lon": -115.21446610746054,
        "alt_km": 35778.74806119759,
        "timestamp": "2025-12-24T09:46:31.246165+00:00",
        "meta_object_name": "SES-5 (EGNOS/PRN 136)",
        "meta_object_id": "2012-036A",
        "meta_epoch": "2025-12-24T00:36:38.599200",
        "meta_mean_motion": 1.00271637,
        "meta_eccentricity": 0.0001913,
        "meta_inclination": 0.06,
        "meta_ra_of_asc_node": 303.7669,
        "meta_arg_of_pericenter": 325.6654,
        "meta_mean_anomaly": 197.5234,
        "meta_ephemeris_type": 0,
        "meta_classification_type": "U",
        "meta_norad_cat_id": 38652,
        "meta_element_set_no": 999,
        "meta_rev_at_epoch": 4270,
        "meta_bstar": 0,
        "meta_mean_motion_dot": 5.5e-07,
        "meta_mean_motion_ddot": 0,
        "tle_line1": "1 38652U 12036A   25358.02544675  .00000055  00000+0  00000+0 0  9990",
        "tle_line2": "2 38652   0.0600 303.7669 0001913 325.6654 197.5234  1.00271637 42702"
      },
      "geometry": {
        "type": "Point",
        "coordinates": [
          -115.21446610746054,
          -0.06533201575615773
        ]
      }
    },
    {
      "type": "Feature",
      "properties": {
        "norad_id": 38775,
        "name": "BEIDOU-2 M6 (C14)",
        "group": "gnss",
        "lat": 45.25387121466166,
        "lon": 110.78028560432384,
        "alt_km": 21514.492940418277,
        "timestamp": "2025-12-24T09:46:31.246190+00:00",
        "meta_object_name": "BEIDOU-2 M6 (C14)",
        "meta_object_id": "2012-050B",
        "meta_epoch": "2025-12-23T05:54:39.234816",
        "meta_mean_motion": 1.86230862,
        "meta_eccentricity": 0.00114449,
        "meta_inclination": 56.3871,
        "meta_ra_of_asc_node": 68.7189,
        "meta_arg_of_pericenter": 343.1863,
        "meta_mean_anomaly": 16.829,
        "meta_ephemeris_type": 0,
        "meta_classification_type": "U",
        "meta_norad_cat_id": 38775,
        "meta_element_set_no": 999,
        "meta_rev_at_epoch": 9003,
        "meta_bstar": 0,
        "meta_mean_motion_dot": -2.5e-07,
        "meta_mean_motion_ddot": 0,
        "tle_line1": "1 38775U 12050B   25357.24628744 -.00000025  00000+0  00000+0 0  9993",
        "tle_line2": "2 38775  56.3871  68.7189 0011444 343.1863  16.8290  1.86230862 90037"
      },
      "geometry": {
        "type": "Point",
        "coordinates": [
          110.78028560432384,
          45.25387121466166
        ]
      }
    },
    {
      "type": "Feature",
      "properties": {
        "norad_id": 38779,
        "name": "GSAT-10 (GAGAN/PRN 128)",
        "group": "gnss",
        "lat": 0.03419902670034281,
        "lon": -37.1702559760864,
        "alt_km": 35795.11337796965,
        "timestamp": "2025-12-24T09:46:31.246203+00:00",
        "meta_object_name": "GSAT-10 (GAGAN/PRN 128)",
        "meta_object_id": "2012-051B",
        "meta_epoch": "2025-12-23T23:47:58.140096",
        "meta_mean_motion": 1.00271365,
        "meta_eccentricity": 0.0002249,
        "meta_inclination": 0.065,
        "meta_ra_of_asc_node": 262.6687,
        "meta_arg_of_pericenter": 219.7195,
        "meta_mean_anomaly": 50.4102,
        "meta_ephemeris_type": 0,
        "meta_classification_type": "U",
        "meta_norad_cat_id": 38779,
        "meta_element_set_no": 999,
        "meta_rev_at_epoch": 4834,
        "meta_bstar": 0,
        "meta_mean_motion_dot": -1.44e-06,
        "meta_mean_motion_ddot": 0,
        "tle_line1": "1 38779U 12051B   25357.99164514 -.00000144  00000+0  00000+0 0  9992",
        "tle_line2": "2 38779   0.0650 262.6687 0002249 219.7195  50.4102  1.00271365 48341"
      },
      "geometry": {
        "type": "Point",
        "coordinates": [
          -37.1702559760864,
          0.03419902670034281
        ]
      }
    },
    {
      "type": "Feature",
      "properties": {
        "norad_id": 38833,
        "name": "GPS BIIF-3  (PRN 24)",
        "group": "gnss",
        "lat": 47.364236325264905,
        "lon": -155.89436091130847,
        "alt_km": 19709.45407464094,
        "timestamp": "2025-12-24T09:46:31.246216+00:00",
        "meta_object_name": "GPS BIIF-3  (PRN 24)",
        "meta_object_id": "2012-053A",
        "meta_epoch": "2025-12-23T07:42:27.651168",
        "meta_mean_motion": 2.00565064,
        "meta_eccentricity": 0.01760539,
        "meta_inclination": 53.5596,
        "meta_ra_of_asc_node": 150.8054,
        "meta_arg_of_pericenter": 64.149,
        "meta_mean_anomaly": 297.6308,
        "meta_ephemeris_type": 0,
        "meta_classification_type": "U",
        "meta_norad_cat_id": 38833,
        "meta_element_set_no": 999,
        "meta_rev_at_epoch": 9591,
        "meta_bstar": 0,
        "meta_mean_motion_dot": 7.4e-07,
        "meta_mean_motion_ddot": 0,
        "tle_line1": "1 38833U 12053A   25357.32115337  .00000074  00000+0  00000+0 0  9992",
        "tle_line2": "2 38833  53.5596 150.8054 0176053  64.1490 297.6308  2.00565064 95916"
      },
      "geometry": {
        "type": "Point",
        "coordinates": [
          -155.89436091130847,
          47.364236325264905
        ]
      }
    }
  ]
}